{
  "norad_id": 60592,
  "name": "STARLINK-31497",
  "history": [
    {
      "epoch": "2026-04-17T21:33:22.107456Z",
      "apogee_km": 476.0908907276844,
      "perigee_km": 474.406602646578,
      "latitude_deg": -7.316471952937543e-06,
      "longitude_deg": -44.41024125070191,
      "height_km": 475.9923309062017,
      "semi_major_axis_km": 6853.385746687131,
      "eccentricity": 0.00012288,
      "inclination_deg": 53.1598,
      "raan_deg": 124.9568,
      "arg_perigee_deg": 79.4249,
      "mean_anomaly_deg": 280.689,
      "mean_motion_rev_day": 15.30188721
    },
    {
      "epoch": "2026-04-18T17:56:03.460128Z",
      "apogee_km": 476.0825111132817,
      "perigee_km": 474.38698694257164,
      "latitude_deg": 5.5376780600130995e-05,
      "longitude_deg": 5.1365017432766145,
      "height_km": 475.9870006525982,
      "semi_major_axis_km": 6853.371749027926,
      "eccentricity": 0.0001237,
      "inclination_deg": 53.1598,
      "raan_deg": 121.0127,
      "arg_perigee_deg": 80.0925,
      "mean_anomaly_deg": 280.0216,
      "mean_motion_rev_day": 15.30193409
    },
    {
      "epoch": "2026-04-19T17:26:51.946368Z",
      "apogee_km": 476.02986387347755,
      "perigee_km": 474.4823677079321,
      "latitude_deg": 1.2413727139812256e-05,
      "longitude_deg": 6.917678983647914,
      "height_km": 476.0486971461361,
      "semi_major_axis_km": 6853.3931157907045,
      "eccentricity": 0.0001129,
      "inclination_deg": 53.1598,
      "raan_deg": 116.4616,
      "arg_perigee_deg": 82.1504,
      "mean_anomaly_deg": 277.9625,
      "mean_motion_rev_day": 15.30186253
    },
    {
      "epoch": "2026-04-20T09:07:23.429856Z",
      "apogee_km": 475.970255252073,
      "perigee_km": 474.5014403833293,
      "latitude_deg": -4.246555432100641e-05,
      "longitude_deg": 128.10828941348305,
      "height_km": 476.04239883776046,
      "semi_major_axis_km": 6853.372847817701,
      "eccentricity": 0.00010716,
      "inclination_deg": 53.1601,
      "raan_deg": 113.4272,
      "arg_perigee_deg": 82.8177,
      "mean_anomaly_deg": 277.2945,
      "mean_motion_rev_day": 15.30193041
    },
    {
      "epoch": "2026-04-21T16:28:27.300576Z",
      "apogee_km": 476.041922379105,
      "perigee_km": 474.43960265822807,
      "latitude_deg": -5.020465585379386e-06,
      "longitude_deg": 10.48794323576899,
      "height_km": 476.06414860767705,
      "semi_major_axis_km": 6853.377762518666,
      "eccentricity": 0.0001169,
      "inclination_deg": 53.1594,
      "raan_deg": 107.3605,
      "arg_perigee_deg": 84.6451,
      "mean_anomaly_deg": 275.4683,
      "mean_motion_rev_day": 15.30191395
    },
    {
      "epoch": "2026-04-22T15:59:15.663264Z",
      "apogee_km": 476.04394554425926,
      "perigee_km": 474.43751380442336,
      "latitude_deg": -4.5433114236252616e-05,
      "longitude_deg": 12.270037062628678,
      "height_km": 476.07421948381165,
      "semi_major_axis_km": 6853.377729674341,
      "eccentricity": 0.0001172,
      "inclination_deg": 53.16,
      "raan_deg": 102.8098,
      "arg_perigee_deg": 85.3777,
      "mean_anomaly_deg": 274.7357,
      "mean_motion_rev_day": 15.30191406
    }
  ]
}